STARLINK-1925           
1 46756U 20074T   23155.76943102  .00000237  00000+0  34782-4 0  9998
2 46756  53.0544 176.2352 0001125  97.5017 262.6100 15.06394808144533
STARLINK-1926           
1 46757U 20074U   23155.78416089 -.00000327  00000+0 -30359-5 0  9999
2 46757  53.0539 176.0143 0001219  78.6804 281.4322 15.06392545144533
STARLINK-1928           
1 46758U 20074V   23155.78781362  .00000441  00000+0  48479-4 0  9995
2 46758  53.0529 175.7550 0001138  89.5740 270.5380 15.06396754144541
STARLINK-1833           
1 46759U 20074W   23156.04859288  .00002186  00000+0  16564-3 0  9996
2 46759  53.0525 184.5821 0001116  96.8260 263.2856 15.06391339144171
STARLINK-1896           
1 46760U 20074X   23155.79425893 -.00000588  00000+0 -20623-4 0  9998
2 46760  53.0531 185.7213 0000928 104.9371 255.1720 15.06401598144407
STARLINK-1903           
1 46764U 20074AB  23155.78689341  .00000292  00000+0  38476-4 0  9996
2 46764  53.0527 185.7564 0001057  76.4281 283.6825 15.06396579144406
STARLINK-1906           
1 46765U 20074AC  23155.77583353  .00000006  00000+0  19294-4 0  9992
2 46765  53.0531 185.8080 0001250  82.8358 277.2773 15.06395355144397
STARLINK-1916           
1 46766U 20074AD  23155.50306478 -.00000540  00000+0 -17317-4 0  9994
2 46766  53.0548 187.0338 0001697 134.4822 225.6306 15.06401635144366
STARLINK-1917           
1 46767U 20074AE  23155.79794421 -.00001282  00000+0 -67169-4 0  9999
2 46767  53.0540 185.7125 0000993  93.4939 266.6163 15.06403602144406
STARLINK-1918           
1 46768U 20074AF  23155.80163582  .00000608  00000+0  59691-4 0  9990
2 46768  53.0536 185.6942 0001079  86.6151 273.4961 15.06399361144402
STARLINK-1932           
1 46770U 20074AH  23156.07446338  .00001800  00000+0  13973-3 0  9993
2 46770  53.0532 185.0129 0001043  93.9652 266.1456 15.06388892144450
STARLINK-1936           
1 46772U 20074AK  23156.07345024  .00001560  00000+0  12365-3 0  9992
2 46772  53.0534 184.4592 0001010  92.5006 267.6098 15.06388103144467
STARLINK-1798           
1 46779U 20074AS  23155.30817321 -.00000161  00000+0  80821-5 0  9999
2 46779  53.0537 162.9053 0001074  89.7175 270.3937 15.06399929144398
STARLINK-1832           
1 46780U 20074AT  23156.15962983  .00000504  00000+0  52691-4 0  9993
2 46780  53.0535 159.0822 0001065  78.9508 281.1601 15.06396061144537
STARLINK-1834           
1 46781U 20074AU  23155.77905616  .00000528  00000+0  54368-4 0  9990
2 46781  53.0537 170.7930 0001229  84.6257 275.4872 15.06399424144618
STARLINK-1835           
1 46782U 20074AV  23156.01588630  .00002899  00000+0  21337-3 0  9994
2 46782  53.0524 159.7316 0000855  79.9432 280.1653 15.06409553144509
STARLINK-1851           
1 46783U 20074AW  23156.16331489  .00000587  00000+0  58267-4 0  9994
2 46783  53.0545 159.0713 0001131  58.1304 301.9795 15.06394291144536
