[{"OBJECT_NAME":"STARLINK-1925","OBJECT_ID":"2020-074T","EPOCH":"2023-06-04T18:27:58.840128","MEAN_MOTION":15.06394808,"ECCENTRICITY":0.0001125,"INCLINATION":53.0544,"RA_OF_ASC_NODE":176.2352,"ARG_OF_PERICENTER":97.5017,"MEAN_ANOMALY":262.61,"EPHEMERIS_TYPE":0,"CLASSIFICATION_TYPE":"U","NORAD_CAT_ID":46756,"ELEMENT_SET_NO":999,"REV_AT_EPOCH":14453,"BSTAR":3.4782e-5,"MEAN_MOTION_DOT":2.37e-6,"MEAN_MOTION_DDOT":0},{"OBJECT_NAME":"STARLINK-1926","OBJECT_ID":"2020-074U","EPOCH":"2023-06-04T18:49:11.500896","MEAN_MOTION":15.06392545,"ECCENTRICITY":0.0001219,"INCLINATION":53.0539,"RA_OF_ASC_NODE":176.0143,"ARG_OF_PERICENTER":78.6804,"MEAN_ANOMALY":281.4322,"EPHEMERIS_TYPE":0,"CLASSIFICATION_TYPE":"U","NORAD_CAT_ID":46757,"ELEMENT_SET_NO":999,"REV_AT_EPOCH":14453,"BSTAR":-3.0359e-6,"MEAN_MOTION_DOT":-3.27e-6,"MEAN_MOTION_DDOT":0},{"OBJECT_NAME":"STARLINK-1928","OBJECT_ID":"2020-074V","EPOCH":"2023-06-04T18:54:27.096768","MEAN_MOTION":15.06396754,"ECCENTRICITY":0.0001138,"INCLINATION":53.0529,"RA_OF_ASC_NODE":175.755,"ARG_OF_PERICENTER":89.574,"MEAN_ANOMALY":270.538,"EPHEMERIS_TYPE":0,"CLASSIFICATION_TYPE":"U","NORAD_CAT_ID":46758,"ELEMENT_SET_NO":999,"REV_AT_EPOCH":14454,"BSTAR":4.8479e-5,"MEAN_MOTION_DOT":4.41e-6,"MEAN_MOTION_DDOT":0},{"OBJECT_NAME":"STARLINK-1833","OBJECT_ID":"2020-074W","EPOCH":"2023-06-05T01:09:58.424832","MEAN_MOTION":15.06391339,"ECCENTRICITY":0.0001116,"INCLINATION":53.0525,"RA_OF_ASC_NODE":184.5821,"ARG_OF_PERICENTER":96.826,"MEAN_ANOMALY":263.2856,"EPHEMERIS_TYPE":0,"CLASSIFICATION_TYPE":"U","NORAD_CAT_ID":46759,"ELEMENT_SET_NO":999,"REV_AT_EPOCH":14417,"BSTAR":0.00016564,"MEAN_MOTION_DOT":2.186e-5,"MEAN_MOTION_DDOT":0},{"OBJECT_NAME":"STARLINK-1896","OBJECT_ID":"2020-074X","EPOCH":"2023-06-04T19:03:43.971552","MEAN_MOTION":15.06401598,"ECCENTRICITY":9.28e-5,"INCLINATION":53.0531,"RA_OF_ASC_NODE":185.7213,"ARG_OF_PERICENTER":104.9371,"MEAN_ANOMALY":255.172,"EPHEMERIS_TYPE":0,"CLASSIFICATION_TYPE":"U","NORAD_CAT_ID":46760,"ELEMENT_SET_NO":999,"REV_AT_EPOCH":14440,"BSTAR":-2.0623e-5,"MEAN_MOTION_DOT":-5.88e-6,"MEAN_MOTION_DDOT":0},{"OBJECT_NAME":"STARLINK-1903","OBJECT_ID":"2020-074AB","EPOCH":"2023-06-04T18:53:07.590624","MEAN_MOTION":15.06396579,"ECCENTRICITY":0.0001057,"INCLINATION":53.0527,"RA_OF_ASC_NODE":185.7564,"ARG_OF_PERICENTER":76.4281,"MEAN_ANOMALY":283.6825,"EPHEMERIS_TYPE":0,"CLASSIFICATION_TYPE":"U","NORAD_CAT_ID":46764,"ELEMENT_SET_NO":999,"REV_AT_EPOCH":14440,"BSTAR":3.8476e-5,"MEAN_MOTION_DOT":2.92e-6,"MEAN_MOTION_DDOT":0},{"OBJECT_NAME":"STARLINK-1906","OBJECT_ID":"2020-074AC","EPOCH":"2023-06-04T18:37:12.016992","MEAN_MOTION":15.06395355,"ECCENTRICITY":0.000125,"INCLINATION":53.0531,"RA_OF_ASC_NODE":185.808,"ARG_OF_PERICENTER":82.8358,"MEAN_ANOMALY":277.2773,"EPHEMERIS_TYPE":0,"CLASSIFICATION_TYPE":"U","NORAD_CAT_ID":46765,"ELEMENT_SET_NO":999,"REV_AT_EPOCH":14439,"BSTAR":1.9294e-5,"MEAN_MOTION_DOT":6.0e-8,"MEAN_MOTION_DDOT":0},{"OBJECT_NAME":"STARLINK-1916","OBJECT_ID":"2020-074AD","EPOCH":"2023-06-04T12:04:24.796992","MEAN_MOTION":15.06401635,"ECCENTRICITY":0.0001697,"INCLINATION":53.0548,"RA_OF_ASC_NODE":187.0338,"ARG_OF_PERICENTER":134.4822,"MEAN_ANOMALY":225.6306,"EPHEMERIS_TYPE":0,"CLASSIFICATION_TYPE":"U","NORAD_CAT_ID":46766,"ELEMENT_SET_NO":999,"REV_AT_EPOCH":14436,"BSTAR":-1.7317e-5,"MEAN_MOTION_DOT":-5.4e-6,"MEAN_MOTION_DDOT":0},{"OBJECT_NAME":"STARLINK-1917","OBJECT_ID":"2020-074AE","EPOCH":"2023-06-04T19:09:02.379744","MEAN_MOTION":15.06403602,"ECCENTRICITY":9.93e-5,"INCLINATION":53.054,"RA_OF_ASC_NODE":185.7125,"ARG_OF_PERICENTER":93.4939,"MEAN_ANOMALY":266.6163,"EPHEMERIS_TYPE":0,"CLASSIFICATION_TYPE":"U","NORAD_CAT_ID":46767,"ELEMENT_SET_NO":999,"REV_AT_EPOCH":14440,"BSTAR":-6.7169e-5,"MEAN_MOTION_DOT":-1.282e-5,"MEAN_MOTION_DDOT":0},{"OBJECT_NAME":"STARLINK-1918","OBJECT_ID":"2020-074AF","EPOCH":"2023-06-04T19:14:21.334848","MEAN_MOTION":15.06399361,"ECCENTRICITY":0.0001079,"INCLINATION":53.0536,"RA_OF_ASC_NODE":185.6942,"ARG_OF_PERICENTER":86.6151,"MEAN_ANOMALY":273.4961,"EPHEMERIS_TYPE":0,"CLASSIFICATION_TYPE":"U","NORAD_CAT_ID":46768,"ELEMENT_SET_NO":999,"REV_AT_EPOCH":14440,"BSTAR":5.9691e-5,"MEAN_MOTION_DOT":6.08e-6,"MEAN_MOTION_DDOT":0},{"OBJECT_NAME":"STARLINK-1932","OBJECT_ID":"2020-074AH","EPOCH":"2023-06-05T01:47:13.636032","MEAN_MOTION":15.06388892,"ECCENTRICITY":0.0001043,"INCLINATION":53.0532,"RA_OF_ASC_NODE":185.0129,"ARG_OF_PERICENTER":93.9652,"MEAN_ANOMALY":266.1456,"EPHEMERIS_TYPE":0,"CLASSIFICATION_TYPE":"U","NORAD_CAT_ID":46770,"ELEMENT_SET_NO":999,"REV_AT_EPOCH":14445,"BSTAR":0.00013973,"MEAN_MOTION_DOT":1.8e-5,"MEAN_MOTION_DDOT":0},{"OBJECT_NAME":"STARLINK-1936","OBJECT_ID":"2020-074AK","EPOCH":"2023-06-05T01:45:46.100736","MEAN_MOTION":15.06388103,"ECCENTRICITY":0.000101,"INCLINATION":53.0534,"RA_OF_ASC_NODE":184.4592,"ARG_OF_PERICENTER":92.5006,"MEAN_ANOMALY":267.6098,"EPHEMERIS_TYPE":0,"CLASSIFICATION_TYPE":"U","NORAD_CAT_ID":46772,"ELEMENT_SET_NO":999,"REV_AT_EPOCH":14446,"BSTAR":0.00012365,"MEAN_MOTION_DOT":1.56e-5,"MEAN_MOTION_DDOT":0},{"OBJECT_NAME":"STARLINK-1798","OBJECT_ID":"2020-074AS","EPOCH":"2023-06-04T07:23:46.165344","MEAN_MOTION":15.06399929,"ECCENTRICITY":0.0001074,"INCLINATION":53.0537,"RA_OF_ASC_NODE":162.9053,"ARG_OF_PERICENTER":89.7175,"MEAN_ANOMALY":270.3937,"EPHEMERIS_TYPE":0,"CLASSIFICATION_TYPE":"U","NORAD_CAT_ID":46779,"ELEMENT_SET_NO":999,"REV_AT_EPOCH":14439,"BSTAR":8.0821e-6,"MEAN_MOTION_DOT":-1.61e-6,"MEAN_MOTION_DDOT":0},{"OBJECT_NAME":"STARLINK-1832","OBJECT_ID":"2020-074AT","EPOCH":"2023-06-05T03:49:52.017312","MEAN_MOTION":15.06396061,"ECCENTRICITY":0.0001065,"INCLINATION":53.0535,"RA_OF_ASC_NODE":159.0822,"ARG_OF_PERICENTER":78.9508,"MEAN_ANOMALY":281.1601,"EPHEMERIS_TYPE":0,"CLASSIFICATION_TYPE":"U","NORAD_CAT_ID":46780,"ELEMENT_SET_NO":999,"REV_AT_EPOCH":14453,"BSTAR":5.2691e-5,"MEAN_MOTION_DOT":5.04e-6,"MEAN_MOTION_DDOT":0},{"OBJECT_NAME":"STARLINK-1834","OBJECT_ID":"2020-074AU","EPOCH":"2023-06-04T18:41:50.452224","MEAN_MOTION":15.06399424,"ECCENTRICITY":0.0001229,"INCLINATION":53.0537,"RA_OF_ASC_NODE":170.793,"ARG_OF_PERICENTER":84.6257,"MEAN_ANOMALY":275.4872,"EPHEMERIS_TYPE":0,"CLASSIFICATION_TYPE":"U","NORAD_CAT_ID":46781,"ELEMENT_SET_NO":999,"REV_AT_EPOCH":14461,"BSTAR":5.4368e-5,"MEAN_MOTION_DOT":5.28e-6,"MEAN_MOTION_DDOT":0},{"OBJECT_NAME":"STARLINK-1835","OBJECT_ID":"2020-074AV","EPOCH":"2023-06-05T00:22:52.576320","MEAN_MOTION":15.06409553,"ECCENTRICITY":8.55e-5,"INCLINATION":53.0524,"RA_OF_ASC_NODE":159.7316,"ARG_OF_PERICENTER":79.9432,"MEAN_ANOMALY":280.1653,"EPHEMERIS_TYPE":0,"CLASSIFICATION_TYPE":"U","NORAD_CAT_ID":46782,"ELEMENT_SET_NO":999,"REV_AT_EPOCH":14450,"BSTAR":0.00021337,"MEAN_MOTION_DOT":2.899e-5,"MEAN_MOTION_DDOT":0},{"OBJECT_NAME":"STARLINK-1851","OBJECT_ID":"2020-074AW","EPOCH":"2023-06-05T03:55:10.406496","MEAN_MOTION":15.06394291,"ECCENTRICITY":0.0001131,"INCLINATION":53.0545,"RA_OF_ASC_NODE":159.0713,"ARG_OF_PERICENTER":58.1304,"MEAN_ANOMALY":301.9795,"EPHEMERIS_TYPE":0,"CLASSIFICATION_TYPE":"U","NORAD_CAT_ID":46783,"ELEMENT_SET_NO":999,"REV_AT_EPOCH":14453,"BSTAR":5.8267e-5,"MEAN_MOTION_DOT":5.87e-6,"MEAN_MOTION_DDOT":0}]
